{
  "type": "FeatureCollection",
  "features": [
    {
      "type": "Feature",
      "properties": {
        "norad_id": 34056,
        "name": "COSMOS 2251 DEB",
        "group": "cosmos-2251-debris",
        "lat": 4.5536594923984435,
        "lon": -118.18567209413504,
        "alt_km": 788.3775724009347,
        "timestamp": "2025-12-20T03:42:47.787857+00:00",
        "meta_object_name": "COSMOS 2251 DEB",
        "meta_object_id": "1993-036JT",
        "meta_epoch": "2025-12-19T15:46:14.137248",
        "meta_mean_motion": 14.2057922,
        "meta_eccentricity": 0.0123789,
        "meta_inclination": 74.0586,
        "meta_ra_of_asc_node": 64.0082,
        "meta_arg_of_pericenter": 110.0271,
        "meta_mean_anomaly": 40.0119,
        "meta_ephemeris_type": 0,
        "meta_classification_type": "U",
        "meta_norad_cat_id": 34056,
        "meta_element_set_no": 999,
        "meta_rev_at_epoch": 86509,
        "meta_bstar": 0.00048677,
        "meta_mean_motion_dot": 1.107e-05,
        "meta_mean_motion_ddot": 0,
        "tle_line1": "1 34056U 93036JT  25353.65710807  .00001107  00000+0  48677-3 0  9994",
        "tle_line2": "2 34056  74.0586  64.0082 0123789 110.0271  40.0119 14.20579220865097"
      },
      "geometry": {
        "type": "Point",
        "coordinates": [
          -118.18567209413504,
          4.5536594923984435
        ]
      }
    },
    {
      "type": "Feature",
      "properties": {
        "norad_id": 34058,
        "name": "COSMOS 2251 DEB",
        "group": "cosmos-2251-debris",
        "lat": 39.18968286860093,
        "lon": 179.6836732068137,
        "alt_km": 1173.1005583925662,
        "timestamp": "2025-12-20T03:42:47.787868+00:00",
        "meta_object_name": "COSMOS 2251 DEB",
        "meta_object_id": "1993-036JV",
        "meta_epoch": "2025-12-19T20:45:46.254816",
        "meta_mean_motion": 13.56086595,
        "meta_eccentricity": 0.0377642,
        "meta_inclination": 73.9314,
        "meta_ra_of_asc_node": 166.5628,
        "meta_arg_of_pericenter": 160.4467,
        "meta_mean_anomaly": 271.3128,
        "meta_ephemeris_type": 0,
        "meta_classification_type": "U",
        "meta_norad_cat_id": 34058,
        "meta_element_set_no": 999,
        "meta_rev_at_epoch": 83239,
        "meta_bstar": 0.00054244,
        "meta_mean_motion_dot": 5.81e-06,
        "meta_mean_motion_ddot": 0,
        "tle_line1": "1 34058U 93036JV  25353.86511869  .00000581  00000+0  54244-3 0  9998",
        "tle_line2": "2 34058  73.9314 166.5628 0377642 160.4467 271.3128 13.56086595832397"
      },
      "geometry": {
        "type": "Point",
        "coordinates": [
          179.6836732068137,
          39.18968286860093
        ]
      }
    },
    {
      "type": "Feature",
      "properties": {
        "norad_id": 34059,
        "name": "COSMOS 2251 DEB",
        "group": "cosmos-2251-debris",
        "lat": -29.034020412690595,
        "lon": 163.1455475789291,
        "alt_km": 719.3584189890789,
        "timestamp": "2025-12-20T03:42:47.787878+00:00",
        "meta_object_name": "COSMOS 2251 DEB",
        "meta_object_id": "1993-036JW",
        "meta_epoch": "2025-12-19T17:59:42.446112",
        "meta_mean_motion": 14.52985292,
        "meta_eccentricity": 0.0018492,
        "meta_inclination": 74.0365,
        "meta_ra_of_asc_node": 173.0517,
        "meta_arg_of_pericenter": 249.6851,
        "meta_mean_anomaly": 122.7062,
        "meta_ephemeris_type": 0,
        "meta_classification_type": "U",
        "meta_norad_cat_id": 34059,
        "meta_element_set_no": 999,
        "meta_rev_at_epoch": 88561,
        "meta_bstar": 0.00053056,
        "meta_mean_motion_dot": 2.166e-05,
        "meta_mean_motion_ddot": 0,
        "tle_line1": "1 34059U 93036JW  25353.74979683  .00002166  00000+0  53056-3 0  9999",
        "tle_line2": "2 34059  74.0365 173.0517 0018492 249.6851 122.7062 14.52985292885616"
      },
      "geometry": {
        "type": "Point",
        "coordinates": [
          163.1455475789291,
          -29.034020412690595
        ]
      }
    },
    {
      "type": "Feature",
      "properties": {
        "norad_id": 34061,
        "name": "COSMOS 2251 DEB",
        "group": "cosmos-2251-debris",
        "lat": -18.818674296759845,
        "lon": -115.91337635606541,
        "alt_km": 747.6759923825075,
        "timestamp": "2025-12-20T03:42:47.787888+00:00",
        "meta_object_name": "COSMOS 2251 DEB",
        "meta_object_id": "1993-036JY",
        "meta_epoch": "2025-12-19T11:57:21.112128",
        "meta_mean_motion": 14.40370897,
        "meta_eccentricity": 0.0020755,
        "meta_inclination": 74.039,
        "meta_ra_of_asc_node": 250.8969,
        "meta_arg_of_pericenter": 326.7994,
        "meta_mean_anomaly": 210.5436,
        "meta_ephemeris_type": 0,
        "meta_classification_type": "U",
        "meta_norad_cat_id": 34061,
        "meta_element_set_no": 999,
        "meta_rev_at_epoch": 88277,
        "meta_bstar": 0.00022421,
        "meta_mean_motion_dot": 6.87e-06,
        "meta_mean_motion_ddot": 0,
        "tle_line1": "1 34061U 93036JY  25353.49816102  .00000687  00000+0  22421-3 0  9998",
        "tle_line2": "2 34061  74.0390 250.8969 0020755 326.7994 210.5436 14.40370897882773"
      },
      "geometry": {
        "type": "Point",
        "coordinates": [
          -115.91337635606541,
          -18.818674296759845
        ]
      }
    },
    {
      "type": "Feature",
      "properties": {
        "norad_id": 34062,
        "name": "COSMOS 2251 DEB",
        "group": "cosmos-2251-debris",
        "lat": 43.519928856596025,
        "lon": 139.23200653513277,
        "alt_km": 675.5811827690732,
        "timestamp": "2025-12-20T03:42:47.787898+00:00",
        "meta_object_name": "COSMOS 2251 DEB",
        "meta_object_id": "1993-036JZ",
        "meta_epoch": "2025-12-19T11:37:01.399872",
        "meta_mean_motion": 14.78919302,
        "meta_eccentricity": 0.0073791,
        "meta_inclination": 74.028,
        "meta_ra_of_asc_node": 124.7688,
        "meta_arg_of_pericenter": 202.483,
        "meta_mean_anomaly": 234.4171,
        "meta_ephemeris_type": 0,
        "meta_classification_type": "U",
        "meta_norad_cat_id": 34062,
        "meta_element_set_no": 999,
        "meta_rev_at_epoch": 88695,
        "meta_bstar": 0.0018722,
        "meta_mean_motion_dot": 0.0001445,
        "meta_mean_motion_ddot": 0,
        "tle_line1": "1 34062U 93036JZ  25353.48404398  .00014450  00000+0  18722-2 0  9999",
        "tle_line2": "2 34062  74.0280 124.7688 0073791 202.4830 234.4171 14.78919302886952"
      },
      "geometry": {
        "type": "Point",
        "coordinates": [
          139.23200653513277,
          43.519928856596025
        ]
      }
    },
    {
      "type": "Feature",
      "properties": {
        "norad_id": 34064,
        "name": "COSMOS 2251 DEB",
        "group": "cosmos-2251-debris",
        "lat": 6.798350776660188,
        "lon": -100.93164018543395,
        "alt_km": 741.0533995841743,
        "timestamp": "2025-12-20T03:42:47.787908+00:00",
        "meta_object_name": "COSMOS 2251 DEB",
        "meta_object_id": "1993-036KB",
        "meta_epoch": "2025-12-19T17:49:54.793056",
        "meta_mean_motion": 14.42360084,
        "meta_eccentricity": 0.0022303,
        "meta_inclination": 74.0321,
        "meta_ra_of_asc_node": 257.8758,
        "meta_arg_of_pericenter": 323.4738,
        "meta_mean_anomaly": 66.5194,
        "meta_ephemeris_type": 0,
        "meta_classification_type": "U",
        "meta_norad_cat_id": 34064,
        "meta_element_set_no": 999,
        "meta_rev_at_epoch": 88243,
        "meta_bstar": 0.0003476,
        "meta_mean_motion_dot": 1.125e-05,
        "meta_mean_motion_ddot": 0,
        "tle_line1": "1 34064U 93036KB  25353.74299529  .00001125  00000+0  34760-3 0  9994",
        "tle_line2": "2 34064  74.0321 257.8758 0022303 323.4738  66.5194 14.42360084882436"
      },
      "geometry": {
        "type": "Point",
        "coordinates": [
          -100.93164018543395,
          6.798350776660188
        ]
      }
    },
    {
      "type": "Feature",
      "properties": {
        "norad_id": 34065,
        "name": "COSMOS 2251 DEB",
        "group": "cosmos-2251-debris",
        "lat": -73.49801941945876,
        "lon": 139.5440935032355,
        "alt_km": 768.7100762560358,
        "timestamp": "2025-12-20T03:42:47.787919+00:00",
        "meta_object_name": "COSMOS 2251 DEB",
        "meta_object_id": "1993-036KC",
        "meta_epoch": "2025-12-19T10:35:08.518848",
        "meta_mean_motion": 14.3806961,
        "meta_eccentricity": 0.001665,
        "meta_inclination": 74.0353,
        "meta_ra_of_asc_node": 245.7776,
        "meta_arg_of_pericenter": 342.1123,
        "meta_mean_anomaly": 190.7598,
        "meta_ephemeris_type": 0,
        "meta_classification_type": "U",
        "meta_norad_cat_id": 34065,
        "meta_element_set_no": 999,
        "meta_rev_at_epoch": 88301,
        "meta_bstar": 0.00012443,
        "meta_mean_motion_dot": 3.51e-06,
        "meta_mean_motion_ddot": 0,
        "tle_line1": "1 34065U 93036KC  25353.44107082  .00000351  00000+0  12443-3 0  9998",
        "tle_line2": "2 34065  74.0353 245.7776 0016650 342.1123 190.7598 14.38069610883011"
      },
      "geometry": {
        "type": "Point",
        "coordinates": [
          139.5440935032355,
          -73.49801941945876
        ]
      }
    }
  ]
}